{
  "type": "FeatureCollection",
  "features": [
    {
      "type": "Feature",
      "properties": {
        "norad_id": 32241,
        "name": "FENGYUN 1C DEB",
        "group": "fengyun-1c-debris",
        "lat": -65.06687404263701,
        "lon": -168.35998922531223,
        "alt_km": 758.9619523768833,
        "timestamp": "2025-12-27T16:33:30.508524+00:00",
        "meta_object_name": "FENGYUN 1C DEB",
        "meta_object_id": "1999-025CWP",
        "meta_epoch": "2025-12-22T19:26:55.545504",
        "meta_mean_motion": 14.28813741,
        "meta_eccentricity": 0.01466316,
        "meta_inclination": 99.0757,
        "meta_ra_of_asc_node": 26.6735,
        "meta_arg_of_pericenter": 194.5712,
        "meta_mean_anomaly": 165.1219,
        "meta_ephemeris_type": 0,
        "meta_classification_type": "U",
        "meta_norad_cat_id": 32241,
        "meta_element_set_no": 999,
        "meta_rev_at_epoch": 93967,
        "meta_bstar": 0.0013225361,
        "meta_mean_motion_dot": 3.694e-05,
        "meta_mean_motion_ddot": 0,
        "tle_line1": "1 32241U 99025CWP 25356.81036511  .00003694  00000+0  13225-2 0  9999",
        "tle_line2": "2 32241  99.0757  26.6735 0146631 194.5712 165.1219 14.28813741939678"
      },
      "geometry": {
        "type": "Point",
        "coordinates": [
          -168.35998922531223,
          -65.06687404263701
        ]
      }
    },
    {
      "type": "Feature",
      "properties": {
        "norad_id": 32243,
        "name": "FENGYUN 1C DEB",
        "group": "fengyun-1c-debris",
        "lat": -30.614189199800087,
        "lon": 29.938937375621983,
        "alt_km": 951.7136779912407,
        "timestamp": "2025-12-27T16:33:30.508537+00:00",
        "meta_object_name": "FENGYUN 1C DEB",
        "meta_object_id": "1999-025CWR",
        "meta_epoch": "2025-12-24T13:29:19.216608",
        "meta_mean_motion": 14.04698676,
        "meta_eccentricity": 0.02689617,
        "meta_inclination": 98.2678,
        "meta_ra_of_asc_node": 22.149,
        "meta_arg_of_pericenter": 89.9627,
        "meta_mean_anomaly": 273.2359,
        "meta_ephemeris_type": 0,
        "meta_classification_type": "U",
        "meta_norad_cat_id": 32243,
        "meta_element_set_no": 999,
        "meta_rev_at_epoch": 93754,
        "meta_bstar": 0.0020051854,
        "meta_mean_motion_dot": 4.402e-05,
        "meta_mean_motion_ddot": 0,
        "tle_line1": "1 32243U 99025CWR 25358.56202797  .00004402  00000+0  20052-2 0  9990",
        "tle_line2": "2 32243  98.2678  22.1490 0268961  89.9627 273.2359 14.04698676937547"
      },
      "geometry": {
        "type": "Point",
        "coordinates": [
          29.938937375621983,
          -30.614189199800087
        ]
      }
    },
    {
      "type": "Feature",
      "properties": {
        "norad_id": 32245,
        "name": "FENGYUN 1C DEB",
        "group": "fengyun-1c-debris",
        "lat": 6.053343814582265,
        "lon": 19.749831442801536,
        "alt_km": 674.6133411963938,
        "timestamp": "2025-12-27T16:33:30.508547+00:00",
        "meta_object_name": "FENGYUN 1C DEB",
        "meta_object_id": "1999-025CWT",
        "meta_epoch": "2025-12-23T19:06:09.631584",
        "meta_mean_motion": 14.77154099,
        "meta_eccentricity": 0.00966875,
        "meta_inclination": 98.6537,
        "meta_ra_of_asc_node": 194.6492,
        "meta_arg_of_pericenter": 306.9863,
        "meta_mean_anomaly": 52.2524,
        "meta_ephemeris_type": 0,
        "meta_classification_type": "U",
        "meta_norad_cat_id": 32245,
        "meta_element_set_no": 999,
        "meta_rev_at_epoch": 66269,
        "meta_bstar": 0.0012005122,
        "meta_mean_motion_dot": 9.119e-05,
        "meta_mean_motion_ddot": 0,
        "tle_line1": "1 32245U 99025CWT 25357.79594481  .00009119  00000+0  12005-2 0  9999",
        "tle_line2": "2 32245  98.6537 194.6492 0096687 306.9863  52.2524 14.77154099662698"
      },
      "geometry": {
        "type": "Point",
        "coordinates": [
          19.749831442801536,
          6.053343814582265
        ]
      }
    },
    {
      "type": "Feature",
      "properties": {
        "norad_id": 32304,
        "name": "FENGYUN 1C DEB",
        "group": "fengyun-1c-debris",
        "lat": -14.124824369350707,
        "lon": 135.59769148543737,
        "alt_km": 693.5511638705875,
        "timestamp": "2025-12-27T16:33:30.508559+00:00",
        "meta_object_name": "FENGYUN 1C DEB",
        "meta_object_id": "1999-025CWV",
        "meta_epoch": "2025-12-27T02:25:26.652288",
        "meta_mean_motion": 14.50701816,
        "meta_eccentricity": 0.00496587,
        "meta_inclination": 99.3996,
        "meta_ra_of_asc_node": 317.3297,
        "meta_arg_of_pericenter": 182.8322,
        "meta_mean_anomaly": 177.2595,
        "meta_ephemeris_type": 0,
        "meta_classification_type": "U",
        "meta_norad_cat_id": 32304,
        "meta_element_set_no": 999,
        "meta_rev_at_epoch": 56481,
        "meta_bstar": 0.0014323152,
        "meta_mean_motion_dot": 5.667e-05,
        "meta_mean_motion_ddot": 0,
        "tle_line1": "1 32304U 99025CWV 25361.10100292  .00005667  00000+0  14323-2 0  9997",
        "tle_line2": "2 32304  99.3996 317.3297 0049658 182.8322 177.2595 14.50701816564812"
      },
      "geometry": {
        "type": "Point",
        "coordinates": [
          135.59769148543737,
          -14.124824369350707
        ]
      }
    },
    {
      "type": "Feature",
      "properties": {
        "norad_id": 32308,
        "name": "FENGYUN 1C DEB",
        "group": "fengyun-1c-debris",
        "lat": -10.181599944988564,
        "lon": -128.93130682850926,
        "alt_km": 956.2134767892694,
        "timestamp": "2025-12-27T16:33:30.508569+00:00",
        "meta_object_name": "FENGYUN 1C DEB",
        "meta_object_id": "1999-025CWZ",
        "meta_epoch": "2025-12-24T02:14:10.219776",
        "meta_mean_motion": 14.05552927,
        "meta_eccentricity": 0.01076508,
        "meta_inclination": 97.7728,
        "meta_ra_of_asc_node": 49.387,
        "meta_arg_of_pericenter": 27.4361,
        "meta_mean_anomaly": 333.2438,
        "meta_ephemeris_type": 0,
        "meta_classification_type": "U",
        "meta_norad_cat_id": 32308,
        "meta_element_set_no": 999,
        "meta_rev_at_epoch": 65571,
        "meta_bstar": 0.0016207472,
        "meta_mean_motion_dot": 2.742e-05,
        "meta_mean_motion_ddot": 0,
        "tle_line1": "1 32308U 99025CWZ 25358.09317384  .00002742  00000+0  16207-2 0  9991",
        "tle_line2": "2 32308  97.7728  49.3870 0107650  27.4361 333.2438 14.05552927655711"
      },
      "geometry": {
        "type": "Point",
        "coordinates": [
          -128.93130682850926,
          -10.181599944988564
        ]
      }
    },
    {
      "type": "Feature",
      "properties": {
        "norad_id": 32314,
        "name": "FENGYUN 1C DEB",
        "group": "fengyun-1c-debris",
        "lat": 71.54170320421375,
        "lon": 80.39785495471942,
        "alt_km": 539.0588609890392,
        "timestamp": "2025-12-27T16:33:30.508580+00:00",
        "meta_object_name": "FENGYUN 1C DEB",
        "meta_object_id": "1999-025CXF",
        "meta_epoch": "2025-12-24T00:35:54.225888",
        "meta_mean_motion": 14.79780082,
        "meta_eccentricity": 0.01485363,
        "meta_inclination": 98.8637,
        "meta_ra_of_asc_node": 104.2292,
        "meta_arg_of_pericenter": 122.2161,
        "meta_mean_anomaly": 239.3548,
        "meta_ephemeris_type": 0,
        "meta_classification_type": "U",
        "meta_norad_cat_id": 32314,
        "meta_element_set_no": 999,
        "meta_rev_at_epoch": 97597,
        "meta_bstar": 0.0012677731,
        "meta_mean_motion_dot": 0.00011459,
        "meta_mean_motion_ddot": 0,
        "tle_line1": "1 32314U 99025CXF 25358.02493317  .00011459  00000+0  12678-2 0  9995",
        "tle_line2": "2 32314  98.8637 104.2292 0148536 122.2161 239.3548 14.79780082975975"
      },
      "geometry": {
        "type": "Point",
        "coordinates": [
          80.39785495471942,
          71.54170320421375
        ]
      }
    },
    {
      "type": "Feature",
      "properties": {
        "norad_id": 32316,
        "name": "FENGYUN 1C DEB",
        "group": "fengyun-1c-debris",
        "lat": 35.69228186195943,
        "lon": 23.212794698886643,
        "alt_km": 723.5205115010476,
        "timestamp": "2025-12-27T16:33:30.508590+00:00",
        "meta_object_name": "FENGYUN 1C DEB",
        "meta_object_id": "1999-025CXH",
        "meta_epoch": "2025-12-26T00:50:51.058752",
        "meta_mean_motion": 14.52040416,
        "meta_eccentricity": 0.00264829,
        "meta_inclination": 99.5277,
        "meta_ra_of_asc_node": 28.2675,
        "meta_arg_of_pericenter": 288.9464,
        "meta_mean_anomaly": 102.6722,
        "meta_ephemeris_type": 0,
        "meta_classification_type": "U",
        "meta_norad_cat_id": 32316,
        "meta_element_set_no": 999,
        "meta_rev_at_epoch": 95970,
        "meta_bstar": 0.0017127296,
        "meta_mean_motion_dot": 6.906e-05,
        "meta_mean_motion_ddot": 0,
        "tle_line1": "1 32316U 99025CXH 25360.03531318  .00006906  00000+0  17127-2 0  9990",
        "tle_line2": "2 32316  99.5277  28.2675 0026482 288.9464 102.6722 14.52040416959706"
      },
      "geometry": {
        "type": "Point",
        "coordinates": [
          23.212794698886643,
          35.69228186195943
        ]
      }
    }
  ]
}